[{"OBJECT_NAME":"ION SCV-015","OBJECT_ID":"2023-185H","EPOCH":"2026-03-09T22:36:51.209568","MEAN_MOTION":15.3163624,"ECCENTRICITY":0.00109059,"INCLINATION":97.5772,"RA_OF_ASC_NODE":155.3582,"ARG_OF_PERICENTER":92.3805,"MEAN_ANOMALY":267.8685,"EPHEMERIS_TYPE":0,"CLASSIFICATION_TYPE":"U","NORAD_CAT_ID":58469,"ELEMENT_SET_NO":999,"REV_AT_EPOCH":12588,"BSTAR":0.00030895808,"MEAN_MOTION_DOT":9.376e-5,"MEAN_MOTION_DDOT":0},{"OBJECT_NAME":"STARLINK-34601","OBJECT_ID":"2025-167G","EPOCH":"2026-03-09T04:57:28.475712","MEAN_MOTION":15.30186675,"ECCENTRICITY":0.00012305,"INCLINATION":53.1619,"RA_OF_ASC_NODE":29.0619,"ARG_OF_PERICENTER":87.4764,"MEAN_ANOMALY":272.6377,"EPHEMERIS_TYPE":0,"CLASSIFICATION_TYPE":"U","NORAD_CAT_ID":65084,"ELEMENT_SET_NO":999,"REV_AT_EPOCH":3340,"BSTAR":0.00065799119,"MEAN_MOTION_DOT":0.00019171,"MEAN_MOTION_DDOT":0}]
